IRIDIUM 63              
1 25286U 98021B   25265.76481827  .00000724  00000+0  23953-3 0  9993
2 25286  86.3988  41.1665 0001991  87.6177 272.5248 14.36619632437854
IRIDIUM 69              
1 25319U 98026A   25265.68604889  .00000849  00000+0  25795-3 0  9995
2 25319  86.3953  54.1852 0004344  76.1891 283.9792 14.41054182437103
IRIDIUM 71              
1 25320U 98026B   25265.68040534  .00000510  00000+0  15189-3 0  9999
2 25320  86.3963  48.8647 0004071 107.9666 252.1978 14.41231899437632
IRIDIUM 73              
1 25344U 98032C   25265.79902826  .00000941  00000+0  22874-3 0  9992
2 25344  86.4474   5.3605 0002537  78.4220 281.7271 14.51827311444724
IRIDIUM 82              
1 25467U 98051A   25265.46384079  .00044049  00000+0  11007-2 0  9999
2 25467  86.3615  61.7080 0075317 286.2543  73.0433 15.37011424438878
