<?xml version="1.0" encoding="UTF-8"?>
<ndm xmlns:xsi="http://www.w3.org/2001/XMLSchema-instance" xsi:noNamespaceSchemaLocation="https://sanaregistry.org/r/ndmxml_unqualified/ndmxml-2.0.0-master-2.0.xsd">
<omm id="CCSDS_OMM_VERS" version="2.0">
<header><CREATION_DATE/><ORIGINATOR/></header><body><segment><metadata><OBJECT_NAME>IRIDIUM 63</OBJECT_NAME><OBJECT_ID>1998-021B</OBJECT_ID><CENTER_NAME>EARTH</CENTER_NAME><REF_FRAME>TEME</REF_FRAME><TIME_SYSTEM>UTC</TIME_SYSTEM><MEAN_ELEMENT_THEORY>SGP4</MEAN_ELEMENT_THEORY></metadata><data><meanElements><EPOCH>2025-09-22T18:21:20.298528</EPOCH><MEAN_MOTION>14.36619632</MEAN_MOTION><ECCENTRICITY>.00019911</ECCENTRICITY><INCLINATION>86.3988</INCLINATION><RA_OF_ASC_NODE>41.1665</RA_OF_ASC_NODE><ARG_OF_PERICENTER>87.6177</ARG_OF_PERICENTER><MEAN_ANOMALY>272.5248</MEAN_ANOMALY></meanElements><tleParameters><EPHEMERIS_TYPE>0</EPHEMERIS_TYPE><CLASSIFICATION_TYPE>U</CLASSIFICATION_TYPE><NORAD_CAT_ID>25286</NORAD_CAT_ID><ELEMENT_SET_NO>999</ELEMENT_SET_NO><REV_AT_EPOCH>43785</REV_AT_EPOCH><BSTAR>.23953322E-3</BSTAR><MEAN_MOTION_DOT>.724E-5</MEAN_MOTION_DOT><MEAN_MOTION_DDOT>0</MEAN_MOTION_DDOT></tleParameters></data></segment></body></omm>
<omm id="CCSDS_OMM_VERS" version="2.0">
<header><CREATION_DATE/><ORIGINATOR/></header><body><segment><metadata><OBJECT_NAME>IRIDIUM 69</OBJECT_NAME><OBJECT_ID>1998-026A</OBJECT_ID><CENTER_NAME>EARTH</CENTER_NAME><REF_FRAME>TEME</REF_FRAME><TIME_SYSTEM>UTC</TIME_SYSTEM><MEAN_ELEMENT_THEORY>SGP4</MEAN_ELEMENT_THEORY></metadata><data><meanElements><EPOCH>2025-09-22T16:27:54.624096</EPOCH><MEAN_MOTION>14.41054182</MEAN_MOTION><ECCENTRICITY>.00043441</ECCENTRICITY><INCLINATION>86.3953</INCLINATION><RA_OF_ASC_NODE>54.1852</RA_OF_ASC_NODE><ARG_OF_PERICENTER>76.1891</ARG_OF_PERICENTER><MEAN_ANOMALY>283.9792</MEAN_ANOMALY></meanElements><tleParameters><EPHEMERIS_TYPE>0</EPHEMERIS_TYPE><CLASSIFICATION_TYPE>U</CLASSIFICATION_TYPE><NORAD_CAT_ID>25319</NORAD_CAT_ID><ELEMENT_SET_NO>999</ELEMENT_SET_NO><REV_AT_EPOCH>43710</REV_AT_EPOCH><BSTAR>.25794855E-3</BSTAR><MEAN_MOTION_DOT>.849E-5</MEAN_MOTION_DOT><MEAN_MOTION_DDOT>0</MEAN_MOTION_DDOT></tleParameters></data></segment></body></omm>
<omm id="CCSDS_OMM_VERS" version="2.0">
<header><CREATION_DATE/><ORIGINATOR/></header><body><segment><metadata><OBJECT_NAME>IRIDIUM 71</OBJECT_NAME><OBJECT_ID>1998-026B</OBJECT_ID><CENTER_NAME>EARTH</CENTER_NAME><REF_FRAME>TEME</REF_FRAME><TIME_SYSTEM>UTC</TIME_SYSTEM><MEAN_ELEMENT_THEORY>SGP4</MEAN_ELEMENT_THEORY></metadata><data><meanElements><EPOCH>2025-09-22T16:19:47.021376</EPOCH><MEAN_MOTION>14.41231899</MEAN_MOTION><ECCENTRICITY>.00040719</ECCENTRICITY><INCLINATION>86.3963</INCLINATION><RA_OF_ASC_NODE>48.8647</RA_OF_ASC_NODE><ARG_OF_PERICENTER>107.9666</ARG_OF_PERICENTER><MEAN_ANOMALY>252.1978</MEAN_ANOMALY></meanElements><tleParameters><EPHEMERIS_TYPE>0</EPHEMERIS_TYPE><CLASSIFICATION_TYPE>U</CLASSIFICATION_TYPE><NORAD_CAT_ID>25320</NORAD_CAT_ID><ELEMENT_SET_NO>999</ELEMENT_SET_NO><REV_AT_EPOCH>43763</REV_AT_EPOCH><BSTAR>.15189498E-3</BSTAR><MEAN_MOTION_DOT>.51E-5</MEAN_MOTION_DOT><MEAN_MOTION_DDOT>0</MEAN_MOTION_DDOT></tleParameters></data></segment></body></omm>
<omm id="CCSDS_OMM_VERS" version="2.0">
<header><CREATION_DATE/><ORIGINATOR/></header><body><segment><metadata><OBJECT_NAME>IRIDIUM 73</OBJECT_NAME><OBJECT_ID>1998-032C</OBJECT_ID><CENTER_NAME>EARTH</CENTER_NAME><REF_FRAME>TEME</REF_FRAME><TIME_SYSTEM>UTC</TIME_SYSTEM><MEAN_ELEMENT_THEORY>SGP4</MEAN_ELEMENT_THEORY></metadata><data><meanElements><EPOCH>2025-09-22T19:10:36.041664</EPOCH><MEAN_MOTION>14.51827311</MEAN_MOTION><ECCENTRICITY>.00025375</ECCENTRICITY><INCLINATION>86.4474</INCLINATION><RA_OF_ASC_NODE>5.3605</RA_OF_ASC_NODE><ARG_OF_PERICENTER>78.4220</ARG_OF_PERICENTER><MEAN_ANOMALY>281.7271</MEAN_ANOMALY></meanElements><tleParameters><EPHEMERIS_TYPE>0</EPHEMERIS_TYPE><CLASSIFICATION_TYPE>U</CLASSIFICATION_TYPE><NORAD_CAT_ID>25344</NORAD_CAT_ID><ELEMENT_SET_NO>999</ELEMENT_SET_NO><REV_AT_EPOCH>44472</REV_AT_EPOCH><BSTAR>.22874073E-3</BSTAR><MEAN_MOTION_DOT>.941E-5</MEAN_MOTION_DOT><MEAN_MOTION_DDOT>0</MEAN_MOTION_DDOT></tleParameters></data></segment></body></omm>
<omm id="CCSDS_OMM_VERS" version="2.0">
<header><CREATION_DATE/><ORIGINATOR/></header><body><segment><metadata><OBJECT_NAME>IRIDIUM 82</OBJECT_NAME><OBJECT_ID>1998-051A</OBJECT_ID><CENTER_NAME>EARTH</CENTER_NAME><REF_FRAME>TEME</REF_FRAME><TIME_SYSTEM>UTC</TIME_SYSTEM><MEAN_ELEMENT_THEORY>SGP4</MEAN_ELEMENT_THEORY></metadata><data><meanElements><EPOCH>2025-09-22T11:07:55.844256</EPOCH><MEAN_MOTION>15.37011424</MEAN_MOTION><ECCENTRICITY>.0075317</ECCENTRICITY><INCLINATION>86.3615</INCLINATION><RA_OF_ASC_NODE>61.7080</RA_OF_ASC_NODE><ARG_OF_PERICENTER>286.2543</ARG_OF_PERICENTER><MEAN_ANOMALY>73.0433</MEAN_ANOMALY></meanElements><tleParameters><EPHEMERIS_TYPE>0</EPHEMERIS_TYPE><CLASSIFICATION_TYPE>U</CLASSIFICATION_TYPE><NORAD_CAT_ID>25467</NORAD_CAT_ID><ELEMENT_SET_NO>999</ELEMENT_SET_NO><REV_AT_EPOCH>43887</REV_AT_EPOCH><BSTAR>.11007366E-2</BSTAR><MEAN_MOTION_DOT>.44049E-3</MEAN_MOTION_DOT><MEAN_MOTION_DDOT>0</MEAN_MOTION_DDOT></tleParameters></data></segment></body></omm>
</ndm>
